{
  "type": "FeatureCollection",
  "features": [
    {
      "type": "Feature",
      "properties": {
        "norad_id": 29843,
        "name": "FENGYUN 1C DEB",
        "group": "fengyun-1c-debris",
        "lat": 15.44180873411439,
        "lon": 21.66599080908944,
        "alt_km": 787.4688555869825,
        "timestamp": "2025-12-26T07:29:18.727282+00:00",
        "meta_object_name": "FENGYUN 1C DEB",
        "meta_object_id": "1999-025EM",
        "meta_epoch": "2025-12-25T02:43:41.975328",
        "meta_mean_motion": 14.28578868,
        "meta_eccentricity": 0.0191597,
        "meta_inclination": 99.0367,
        "meta_ra_of_asc_node": 197.9051,
        "meta_arg_of_pericenter": 254.7579,
        "meta_mean_anomaly": 232.2122,
        "meta_ephemeris_type": 0,
        "meta_classification_type": "U",
        "meta_norad_cat_id": 29843,
        "meta_element_set_no": 999,
        "meta_rev_at_epoch": 98458,
        "meta_bstar": 0.00024100333,
        "meta_mean_motion_dot": 6.82e-06,
        "meta_mean_motion_ddot": 0,
        "tle_line1": "1 29843U 99025EM  25359.11368027  .00000682  00000+0  24100-3 0  9998",
        "tle_line2": "2 29843  99.0367 197.9051 0191597 254.7579 232.2122 14.28578868984580"
      },
      "geometry": {
        "type": "Point",
        "coordinates": [
          21.66599080908944,
          15.44180873411439
        ]
      }
    },
    {
      "type": "Feature",
      "properties": {
        "norad_id": 29844,
        "name": "FENGYUN 1C DEB",
        "group": "fengyun-1c-debris",
        "lat": 14.260006834171255,
        "lon": -100.22643344697116,
        "alt_km": 831.2642274394866,
        "timestamp": "2025-12-26T07:29:18.727292+00:00",
        "meta_object_name": "FENGYUN 1C DEB",
        "meta_object_id": "1999-025EN",
        "meta_epoch": "2025-12-25T16:19:40.137024",
        "meta_mean_motion": 14.32014005,
        "meta_eccentricity": 0.01686621,
        "meta_inclination": 98.937,
        "meta_ra_of_asc_node": 261.4149,
        "meta_arg_of_pericenter": 129.3376,
        "meta_mean_anomaly": 232.2893,
        "meta_ephemeris_type": 0,
        "meta_classification_type": "U",
        "meta_norad_cat_id": 29844,
        "meta_element_set_no": 999,
        "meta_rev_at_epoch": 98526,
        "meta_bstar": 0.00040314264,
        "meta_mean_motion_dot": 1.216e-05,
        "meta_mean_motion_ddot": 0,
        "tle_line1": "1 29844U 99025EN  25359.68032566  .00001216  00000+0  40314-3 0  9996",
        "tle_line2": "2 29844  98.9370 261.4149 0168662 129.3376 232.2893 14.32014005985261"
      },
      "geometry": {
        "type": "Point",
        "coordinates": [
          -100.22643344697116,
          14.260006834171255
        ]
      }
    },
    {
      "type": "Feature",
      "properties": {
        "norad_id": 29845,
        "name": "FENGYUN 1C DEB",
        "group": "fengyun-1c-debris",
        "lat": -2.0439505569081686,
        "lon": 0.6015033498022799,
        "alt_km": 809.8518255388672,
        "timestamp": "2025-12-26T07:29:18.727302+00:00",
        "meta_object_name": "FENGYUN 1C DEB",
        "meta_object_id": "1999-025EP",
        "meta_epoch": "2025-12-25T21:42:20.062368",
        "meta_mean_motion": 14.26516625,
        "meta_eccentricity": 0.00781631,
        "meta_inclination": 98.5221,
        "meta_ra_of_asc_node": 359.8981,
        "meta_arg_of_pericenter": 93.0247,
        "meta_mean_anomaly": 333.7798,
        "meta_ephemeris_type": 0,
        "meta_classification_type": "U",
        "meta_norad_cat_id": 29845,
        "meta_element_set_no": 999,
        "meta_rev_at_epoch": 98297,
        "meta_bstar": 0.00049346468,
        "meta_mean_motion_dot": 1.186e-05,
        "meta_mean_motion_ddot": 0,
        "tle_line1": "1 29845U 99025EP  25359.90439887  .00001186  00000+0  49346-3 0  9999",
        "tle_line2": "2 29845  98.5221 359.8981 0078163  93.0247 333.7798 14.26516625982973"
      },
      "geometry": {
        "type": "Point",
        "coordinates": [
          0.6015033498022799,
          -2.0439505569081686
        ]
      }
    },
    {
      "type": "Feature",
      "properties": {
        "norad_id": 29846,
        "name": "FENGYUN 1C DEB",
        "group": "fengyun-1c-debris",
        "lat": 28.692597636540718,
        "lon": 37.032795755688205,
        "alt_km": 860.8063371465369,
        "timestamp": "2025-12-26T07:29:18.727312+00:00",
        "meta_object_name": "FENGYUN 1C DEB",
        "meta_object_id": "1999-025EQ",
        "meta_epoch": "2025-12-25T23:27:15.181920",
        "meta_mean_motion": 14.19100423,
        "meta_eccentricity": 0.00837734,
        "meta_inclination": 98.6534,
        "meta_ra_of_asc_node": 41.487,
        "meta_arg_of_pericenter": 265.6914,
        "meta_mean_anomaly": 213.405,
        "meta_ephemeris_type": 0,
        "meta_classification_type": "U",
        "meta_norad_cat_id": 29846,
        "meta_element_set_no": 999,
        "meta_rev_at_epoch": 98047,
        "meta_bstar": 0.00013845781,
        "meta_mean_motion_dot": 2.56e-06,
        "meta_mean_motion_ddot": 0,
        "tle_line1": "1 29846U 99025EQ  25359.97725905  .00000256  00000+0  13846-3 0  9999",
        "tle_line2": "2 29846  98.6534  41.4870 0083773 265.6914 213.4050 14.19100423980479"
      },
      "geometry": {
        "type": "Point",
        "coordinates": [
          37.032795755688205,
          28.692597636540718
        ]
      }
    },
    {
      "type": "Feature",
      "properties": {
        "norad_id": 29847,
        "name": "FENGYUN 1C DEB",
        "group": "fengyun-1c-debris",
        "lat": -28.663595464884907,
        "lon": 171.00832030964852,
        "alt_km": 943.5154324262694,
        "timestamp": "2025-12-26T07:29:18.727323+00:00",
        "meta_object_name": "FENGYUN 1C DEB",
        "meta_object_id": "1999-025ER",
        "meta_epoch": "2025-12-25T23:56:10.869792",
        "meta_mean_motion": 14.03013545,
        "meta_eccentricity": 0.00847205,
        "meta_inclination": 98.9041,
        "meta_ra_of_asc_node": 355.6167,
        "meta_arg_of_pericenter": 2.1046,
        "meta_mean_anomaly": 58.7937,
        "meta_ephemeris_type": 0,
        "meta_classification_type": "U",
        "meta_norad_cat_id": 29847,
        "meta_element_set_no": 999,
        "meta_rev_at_epoch": 96921,
        "meta_bstar": 0.000329493,
        "meta_mean_motion_dot": 4.85e-06,
        "meta_mean_motion_ddot": 0,
        "tle_line1": "1 29847U 99025ER  25359.99734803  .00000485  00000+0  32949-3 0  9998",
        "tle_line2": "2 29847  98.9041 355.6167 0084720   2.1046  58.7937 14.03013545969212"
      },
      "geometry": {
        "type": "Point",
        "coordinates": [
          171.00832030964852,
          -28.663595464884907
        ]
      }
    },
    {
      "type": "Feature",
      "properties": {
        "norad_id": 29848,
        "name": "FENGYUN 1C DEB",
        "group": "fengyun-1c-debris",
        "lat": 28.378936591025138,
        "lon": 50.506548687411204,
        "alt_km": 841.6199568855982,
        "timestamp": "2025-12-26T07:29:18.727333+00:00",
        "meta_object_name": "FENGYUN 1C DEB",
        "meta_object_id": "1999-025ES",
        "meta_epoch": "2025-12-25T14:09:47.219904",
        "meta_mean_motion": 14.20638169,
        "meta_eccentricity": 0.0116329,
        "meta_inclination": 98.2482,
        "meta_ra_of_asc_node": 225.3383,
        "meta_arg_of_pericenter": 257.5907,
        "meta_mean_anomaly": 165.0338,
        "meta_ephemeris_type": 0,
        "meta_classification_type": "U",
        "meta_norad_cat_id": 29848,
        "meta_element_set_no": 999,
        "meta_rev_at_epoch": 97300,
        "meta_bstar": 0.0012637,
        "meta_mean_motion_dot": 2.872e-05,
        "meta_mean_motion_ddot": 0,
        "tle_line1": "1 29848U 99025ES  25359.59012986  .00002872  00000+0  12637-2 0  9999",
        "tle_line2": "2 29848  98.2482 225.3383 0116329 257.5907 165.0338 14.20638169973004"
      },
      "geometry": {
        "type": "Point",
        "coordinates": [
          50.506548687411204,
          28.378936591025138
        ]
      }
    },
    {
      "type": "Feature",
      "properties": {
        "norad_id": 29849,
        "name": "FENGYUN 1C DEB",
        "group": "fengyun-1c-debris",
        "lat": -46.214632604196225,
        "lon": 94.12210039986589,
        "alt_km": 848.500500665079,
        "timestamp": "2025-12-26T07:29:18.727343+00:00",
        "meta_object_name": "FENGYUN 1C DEB",
        "meta_object_id": "1999-025ET",
        "meta_epoch": "2025-12-25T18:37:26.862240",
        "meta_mean_motion": 14.04928703,
        "meta_eccentricity": 0.00798544,
        "meta_inclination": 99.0101,
        "meta_ra_of_asc_node": 84.0614,
        "meta_arg_of_pericenter": 7.8427,
        "meta_mean_anomaly": 116.4607,
        "meta_ephemeris_type": 0,
        "meta_classification_type": "U",
        "meta_norad_cat_id": 29849,
        "meta_element_set_no": 999,
        "meta_rev_at_epoch": 96553,
        "meta_bstar": 0.0010006013,
        "meta_mean_motion_dot": 1.611e-05,
        "meta_mean_motion_ddot": 0,
        "tle_line1": "1 29849U 99025ET  25359.77600535  .00001611  00000+0  10006-2 0  9991",
        "tle_line2": "2 29849  99.0101  84.0614 0079854   7.8427 116.4607 14.04928703965539"
      },
      "geometry": {
        "type": "Point",
        "coordinates": [
          94.12210039986589,
          -46.214632604196225
        ]
      }
    }
  ]
}